{
  "type": "FeatureCollection",
  "features": [
    {
      "type": "Feature",
      "geometry": {
        "type": "Point",
        "coordinates": [-122.4194, 37.7749]
      },
      "properties": {
        "weight": 10,
        "name": "San Francisco"
      }
    },
    {
      "type": "Feature",
      "geometry": {
        "type": "Point",
        "coordinates": [-118.2437, 34.0522]
      },
      "properties": {
        "weight": 8,
        "name": "Los Angeles"
      }
    },
    {
      "type": "Feature",
      "geometry": {
        "type": "Point",
        "coordinates": [-74.006, 40.7128]
      },
      "properties": {
        "weight": 15,
        "name": "New York"
      }
    },
    {
      "type": "Feature",
      "geometry": {
        "type": "Point",
        "coordinates": [-0.1278, 51.5074]
      },
      "properties": {
        "weight": 12,
        "name": "London"
      }
    },
    {
      "type": "Feature",
      "geometry": {
        "type": "Point",
        "coordinates": [139.6917, 35.6895]
      },
      "properties": {
        "weight": 20,
        "name": "Tokyo"
      }
    },
    {
      "type": "Feature",
      "geometry": {
        "type": "Point",
        "coordinates": [151.2093, -33.8688]
      },
      "properties": {
        "weight": 5,
        "name": "Sydney"
      }
    }
  ]
}
